{"type": "FeatureCollection", "features": [ {"type": "Feature", "properties": {"norad_id": 41785, "name": "ALSAT 1B", "group": "resource", "lat": -9.504164921816653, "lon": 7.902508842511722, "alt_km": 658.4576156033518, "timestamp": "2025-12-21T03:56:50.511997+00:00", "meta": {"OBJECT_NAME": "ALSAT 1B", "OBJECT_ID": "2016-059C", "EPOCH": "2025-12-20T19:50:03.012864", "MEAN_MOTION": 14.72083584, "ECCENTRICITY": 0.0010812, "INCLINATION": 97.7806, "RA_OF_ASC_NODE": 6.2674, "ARG_OF_PERICENTER": 80.6943, "MEAN_ANOMALY": 279.5487, "EPHEMERIS_TYPE": 0, "CLASSIFICATION_TYPE": "U", "NORAD_CAT_ID": 41785, "ELEMENT_SET_NO": 999, "REV_AT_EPOCH": 49433, "BSTAR": 6.9277e-05, "MEAN_MOTION_DOT": 3.89e-06, "MEAN_MOTION_DDOT": 0}, "tle": {"line1": "1 41785U 16059C   25354.82642376  .00000389  00000+0  69277-4 0  9997", "line2": "2 41785  97.7806   6.2674 0010812  80.6943 279.5487 14.72083584494338"}}, "geometry": {"type": "Point", "coordinates": [7.902508842511722, -9.504164921816653]}}, {"type": "Feature", "properties": {"norad_id": 41787, "name": "PATHFINDER 1", "group": "resource", "lat": -73.06810154030246, "lon": 24.35868268013096, "alt_km": 690.4919993421854, "timestamp": "2025-12-21T03:56:50.512006+00:00", "meta": {"OBJECT_NAME": "PATHFINDER 1", "OBJECT_ID": "2016-059E", "EPOCH": "2025-12-20T18:28:07.994208", "MEAN_MOTION": 14.67333846, "ECCENTRICITY": 0.0029824, "INCLINATION": 97.8136, "RA_OF_ASC_NODE": 357.1705, "ARG_OF_PERICENTER": 56.7565, "MEAN_ANOMALY": 303.6492, "EPHEMERIS_TYPE": 0, "CLASSIFICATION_TYPE": "U", "NORAD_CAT_ID": 41787, "ELEMENT_SET_NO": 999, "REV_AT_EPOCH": 49354, "BSTAR": 0.0001006, "MEAN_MOTION_DOT": 5.25e-06, "MEAN_MOTION_DDOT": 0}, "tle": {"line1": "1 41787U 16059E   25354.76953697  .00000525  00000+0  10060-3 0  9990", "line2": "2 41787  97.8136 357.1705 0029824  56.7565 303.6492 14.67333846493547"}}, "geometry": {"type": "Point", "coordinates": [24.35868268013096, -73.06810154030246]}}, {"type": "Feature", "properties": {"norad_id": 41790, "name": "SCATSAT 1", "group": "resource", "lat": -81.8436894182926, "lon": 139.78182809363454, "alt_km": 678.7946576159375, "timestamp": "2025-12-21T03:56:50.512015+00:00", "meta": {"OBJECT_NAME": "SCATSAT 1", "OBJECT_ID": "2016-059H", "EPOCH": "2025-12-20T16:59:22.827840", "MEAN_MOTION": 14.78959944, "ECCENTRICITY": 0.0056457, "INCLINATION": 98.1452, "RA_OF_ASC_NODE": 51.4773, "ARG_OF_PERICENTER": 102.8773, "MEAN_ANOMALY": 257.8753, "EPHEMERIS_TYPE": 0, "CLASSIFICATION_TYPE": "U", "NORAD_CAT_ID": 41790, "ELEMENT_SET_NO": 999, "REV_AT_EPOCH": 7520, "BSTAR": 0.00013547, "MEAN_MOTION_DOT": 9.7e-06, "MEAN_MOTION_DDOT": 0}, "tle": {"line1": "1 41790U 16059H   25354.70790310  .00000970  00000+0  13547-3 0  9996", "line2": "2 41790  98.1452  51.4773 0056457 102.8773 257.8753 14.78959944 75205"}}, "geometry": {"type": "Point", "coordinates": [139.78182809363454, -81.8436894182926]}}, {"type": "Feature", "properties": {"norad_id": 41875, "name": "GOKTURK 1A", "group": "resource", "lat": -44.66983493475352, "lon": 59.27965262241782, "alt_km": 691.6213807909826, "timestamp": "2025-12-21T03:56:50.512025+00:00", "meta": {"OBJECT_NAME": "GOKTURK 1A", "OBJECT_ID": "2016-073A", "EPOCH": "2025-12-20T20:21:16.272000", "MEAN_MOTION": 14.62788128, "ECCENTRICITY": 0.0001277, "INCLINATION": 98.1436, "RA_OF_ASC_NODE": 247.1052, "ARG_OF_PERICENTER": 82.8732, "MEAN_ANOMALY": 277.2615, "EPHEMERIS_TYPE": 0, "CLASSIFICATION_TYPE": "U", "NORAD_CAT_ID": 41875, "ELEMENT_SET_NO": 999, "REV_AT_EPOCH": 48275, "BSTAR": 7.8814e-05, "MEAN_MOTION_DOT": 3.55e-06, "MEAN_MOTION_DDOT": 0}, "tle": {"line1": "1 41875U 16073A   25354.84810500  .00000355  00000+0  78814-4 0  9991", "line2": "2 41875  98.1436 247.1052 0001277  82.8732 277.2615 14.62788128482759"}}, "geometry": {"type": "Point", "coordinates": [59.27965262241782, -44.66983493475352]}}, {"type": "Feature", "properties": {"norad_id": 41877, "name": "RESOURCESAT-2A", "group": "resource", "lat": 70.79689745310526, "lon": -88.70201438079616, "alt_km": 813.3898509317733, "timestamp": "2025-12-21T03:56:50.512034+00:00", "meta": {"OBJECT_NAME": "RESOURCESAT-2A", "OBJECT_ID": "2016-074A", "EPOCH": "2025-12-20T20:41:18.415680", "MEAN_MOTION": 14.216019, "ECCENTRICITY": 0.0001393, "INCLINATION": 98.7753, "RA_OF_ASC_NODE": 64.6708, "ARG_OF_PERICENTER": 216.8243, "MEAN_ANOMALY": 143.2838, "EPHEMERIS_TYPE": 0, "CLASSIFICATION_TYPE": "U", "NORAD_CAT_ID": 41877, "ELEMENT_SET_NO": 999, "REV_AT_EPOCH": 46896, "BSTAR": -6.3155e-05, "MEAN_MOTION_DOT": -1.83e-06, "MEAN_MOTION_DDOT": 0}, "tle": {"line1": "1 41877U 16074A   25354.86201870 -.00000183  00000+0 -63155-4 0  9993", "line2": "2 41877  98.7753  64.6708 0001393 216.8243 143.2838 14.21601900468967"}}, "geometry": {"type": "Point", "coordinates": [-88.70201438079616, 70.79689745310526]}}, {"type": "Feature", "properties": {"norad_id": 41948, "name": "CARTOSAT-2D", "group": "resource", "lat": -11.565418531981301, "lon": -128.9979864942586, "alt_km": 510.2343805621513, "timestamp": "2025-12-21T03:56:50.512043+00:00", "meta": {"OBJECT_NAME": "CARTOSAT-2D", "OBJECT_ID": "2017-008A", "EPOCH": "2025-12-20T20:47:04.881408", "MEAN_MOTION": 15.19328139, "ECCENTRICITY": 0.0005309, "INCLINATION": 97.4381, "RA_OF_ASC_NODE": 52.2401, "ARG_OF_PERICENTER": 137.4885, "MEAN_ANOMALY": 222.6762, "EPHEMERIS_TYPE": 0, "CLASSIFICATION_TYPE": "U", "NORAD_CAT_ID": 41948, "ELEMENT_SET_NO": 999, "REV_AT_EPOCH": 49050, "BSTAR": 5.3469e-05, "MEAN_MOTION_DOT": 1.062e-05, "MEAN_MOTION_DDOT": 0}, "tle": {"line1": "1 41948U 17008A   25354.86602872  .00001062  00000+0  53469-4 0  9999", "line2": "2 41948  97.4381  52.2401 0005309 137.4885 222.6762 15.19328139490504"}}, "geometry": {"type": "Point", "coordinates": [-128.9979864942586, -11.565418531981301]}}, {"type": "Feature", "properties": {"norad_id": 42063, "name": "SENTINEL-2B", "group": "resource", "lat": -5.403997488553789, "lon": 68.3099371691953, "alt_km": 792.7239830997041, "timestamp": "2025-12-21T03:56:50.512052+00:00", "meta": {"OBJECT_NAME": "SENTINEL-2B", "OBJECT_ID": "2017-013A", "EPOCH": "2025-12-20T19:34:52.358592", "MEAN_MOTION": 14.30813817, "ECCENTRICITY": 0.0001187, "INCLINATION": 98.5714, "RA_OF_ASC_NODE": 67.1488, "ARG_OF_PERICENTER": 92.5396, "MEAN_ANOMALY": 267.5923, "EPHEMERIS_TYPE": 0, "CLASSIFICATION_TYPE": "U", "NORAD_CAT_ID": 42063, "ELEMENT_SET_NO": 999, "REV_AT_EPOCH": 45913, "BSTAR": 8.038e-05, "MEAN_MOTION_DOT": 1.67e-06, "MEAN_MOTION_DDOT": 0}, "tle": {"line1": "1 42063U 17013A   25354.81588378  .00000167  00000+0  80380-4 0  9990", "line2": "2 42063  98.5714  67.1488 0001187  92.5396 267.5923 14.30813817459138"}}, "geometry": {"type": "Point", "coordinates": [68.3099371691953, -5.403997488553789]}}, {"type": "Feature", "properties": {"norad_id": 42767, "name": "CARTOSAT-2E", "group": "resource", "lat": 77.15107971025608, "lon": -92.32307817441551, "alt_km": 500.9687927399309, "timestamp": "2025-12-21T03:56:50.512061+00:00", "meta": {"OBJECT_NAME": "CARTOSAT-2E", "OBJECT_ID": "2017-036C", "EPOCH": "2025-12-20T21:11:01.450752", "MEAN_MOTION": 15.19270221, "ECCENTRICITY": 0.0002496, "INCLINATION": 97.455, "RA_OF_ASC_NODE": 52.3631, "ARG_OF_PERICENTER": 197.1012, "MEAN_ANOMALY": 163.0139, "EPHEMERIS_TYPE": 0, "CLASSIFICATION_TYPE": "U", "NORAD_CAT_ID": 42767, "ELEMENT_SET_NO": 999, "REV_AT_EPOCH": 47107, "BSTAR": 9.9704e-05, "MEAN_MOTION_DOT": 2.034e-05, "MEAN_MOTION_DDOT": 0}, "tle": {"line1": "1 42767U 17036C   25354.88265568  .00002034  00000+0  99704-4 0  9991", "line2": "2 42767  97.4550  52.3631 0002496 197.1012 163.0139 15.19270221471072"}}, "geometry": {"type": "Point", "coordinates": [-92.32307817441551, 77.15107971025608]}}, {"type": "Feature", "properties": {"norad_id": 42920, "name": "FORMOSAT-5", "group": "resource", "lat": -62.69823527143895, "lon": -126.99896480521127, "alt_km": 724.2323961893353, "timestamp": "2025-12-21T03:56:50.512070+00:00", "meta": {"OBJECT_NAME": "FORMOSAT-5", "OBJECT_ID": "2017-049A", "EPOCH": "2025-12-20T18:32:58.850304", "MEAN_MOTION": 14.50764798, "ECCENTRICITY": 0.0009826, "INCLINATION": 98.2444, "RA_OF_ASC_NODE": 68.9307, "ARG_OF_PERICENTER": 274.1879, "MEAN_ANOMALY": 85.8192, "EPHEMERIS_TYPE": 0, "CLASSIFICATION_TYPE": "U", "NORAD_CAT_ID": 42920, "ELEMENT_SET_NO": 999, "REV_AT_EPOCH": 44080, "BSTAR": 4.5526e-05, "MEAN_MOTION_DOT": 1.35e-06, "MEAN_MOTION_DDOT": 0}, "tle": {"line1": "1 42920U 17049A   25354.77290336  .00000135  00000+0  45526-4 0  9998", "line2": "2 42920  98.2444  68.9307 0009826 274.1879  85.8192 14.50764798440806"}}, "geometry": {"type": "Point", "coordinates": [-126.99896480521127, -62.69823527143895]}}, {"type": "Feature", "properties": {"norad_id": 42969, "name": "SENTINEL-5P", "group": "resource", "lat": 49.33981356351999, "lon": -76.69114440053734, "alt_km": 821.8978388265941, "timestamp": "2025-12-21T03:56:50.512079+00:00", "meta": {"OBJECT_NAME": "SENTINEL-5P", "OBJECT_ID": "2017-064A", "EPOCH": "2025-12-20T19:15:13.275936", "MEAN_MOTION": 14.19519279, "ECCENTRICITY": 0.0001011, "INCLINATION": 98.7796, "RA_OF_ASC_NODE": 293.3152, "ARG_OF_PERICENTER": 90.8145, "MEAN_ANOMALY": 269.3147, "EPHEMERIS_TYPE": 0, "CLASSIFICATION_TYPE": "U", "NORAD_CAT_ID": 42969, "ELEMENT_SET_NO": 999, "REV_AT_EPOCH": 42425, "BSTAR": 3.9816e-05, "MEAN_MOTION_DOT": 4e-07, "MEAN_MOTION_DDOT": 0}, "tle": {"line1": "1 42969U 17064A   25354.80223699  .00000040  00000+0  39816-4 0  9990", "line2": "2 42969  98.7796 293.3152 0001011  90.8145 269.3147 14.19519279424250"}}, "geometry": {"type": "Point", "coordinates": [-76.69114440053734, 49.33981356351999]}}]}